STARLINK-1494           
1 45760U 20038AG  26068.49716211  .00096828  00000+0  67102-3 0  9999
2 45760  53.0480 152.5788 0005412   2.9213 357.1836 15.73709706317367
STARLINK-11626 [DTC]    
1 63556U 25075J   26068.94006081  .00369867  00000+0  27391-2 0  9996
2 63556  43.0001 152.6805 0001422   2.7201 357.3674 15.71017480 53280
